[{"OBJECT_NAME":"SITRO-AIS 8 (ANOKHIN)","OBJECT_ID":"2023-091AD","EPOCH":"2026-03-09T23:44:40.058592","MEAN_MOTION":15.29359179,"ECCENTRICITY":0.0012509,"INCLINATION":97.5169,"RA_OF_ASC_NODE":133.2823,"ARG_OF_PERICENTER":92.0171,"MEAN_ANOMALY":268.2501,"EPHEMERIS_TYPE":0,"CLASSIFICATION_TYPE":"U","NORAD_CAT_ID":57193,"ELEMENT_SET_NO":999,"REV_AT_EPOCH":14927,"BSTAR":0.00064982524,"MEAN_MOTION_DOT":0.00018494,"MEAN_MOTION_DDOT":0},{"OBJECT_NAME":"STARLINK-34769","OBJECT_ID":"2025-167S","EPOCH":"2026-03-09T06:25:26.868576","MEAN_MOTION":15.30202216,"ECCENTRICITY":0.00011525,"INCLINATION":53.1615,"RA_OF_ASC_NODE":28.7328,"ARG_OF_PERICENTER":76.7668,"MEAN_ANOMALY":283.3461,"EPHEMERIS_TYPE":0,"CLASSIFICATION_TYPE":"U","NORAD_CAT_ID":65094,"ELEMENT_SET_NO":999,"REV_AT_EPOCH":3341,"BSTAR":0.00067167369,"MEAN_MOTION_DOT":0.00019588,"MEAN_MOTION_DDOT":0}]
